SATHYABAMASAT
1 41600U 16040B   19310.17193730  .00001455  00000-0  63216-4 0  9994
2 41600  97.3537  10.1403 0012192 255.4467 104.5418 15.23822105187350
